STARLINK-2705           
1 48672U 21044AL  26068.33834318 -.00004992  00000+0 -15241-3 0  9994
2 48672  53.1598 105.8091 0001581  77.9359 282.1819 15.31035302263903
LYNK TOWER 5            
1 59121U 24043Z   26068.92489786  .00009048  00000+0  31902-3 0  9994
2 59121  97.5458 204.7305 0010406 234.6422 125.3846 15.29454506111860
